OBJECT_NAME,OBJECT_ID,EPOCH,MEAN_MOTION,ECCENTRICITY,INCLINATION,RA_OF_ASC_NODE,ARG_OF_PERICENTER,MEAN_ANOMALY,EPHEMERIS_TYPE,CLASSIFICATION_TYPE,NORAD_CAT_ID,ELEMENT_SET_NO,REV_AT_EPOCH,BSTAR,MEAN_MOTION_DOT,MEAN_MOTION_DDOT
ONEWEB-0610,2022-166AH,2026-07-07T02:19:04.214784,13.21825544,.000157,87.9236,240.0193,85.0013,275.1300,0,U,54673,999,17408,.1733E-3,.85E-6,0
ONEWEB-0611,2022-166AJ,2026-07-07T02:09:20.924064,13.21826056,.0002202,87.9237,240.0165,99.3769,260.7614,0,U,54674,999,17407,.20574E-3,.98E-6,0
ONEWEB-0612,2022-166AK,2026-07-07T02:28:45.319584,13.21826157,.0001961,87.9250,240.0116,93.2594,266.8764,0,U,54675,999,17406,.17942E-3,.87E-6,0
ONEWEB-0615,2022-166AL,2026-07-06T22:21:39.439872,13.21828144,.0002187,87.9241,240.0586,103.7894,256.3484,0,U,54676,999,17405,.28909E-4,.25E-6,0
ONEWEB-0655,2022-166AM,2026-07-06T16:20:43.946880,13.21827753,.0001832,87.9240,240.1092,99.5741,260.5600,0,U,54677,999,17401,-.19544E-3,-.68E-6,0
ONEWEB-0659,2022-166AN,2026-07-07T03:38:58.333920,13.21826398,.0002169,87.9237,240.0152,96.4392,263.6989,0,U,54678,999,17416,-.63305E-3,-.248E-5,0
ONEWEB-0685,2022-166AP,2026-07-07T01:49:38.655840,13.21848461,.0001806,87.9234,240.0218,88.2364,271.8976,0,U,54679,999,17404,.11849E-4,.18E-6,0
ONEWEB-0712,2022-166AQ,2026-07-06T14:11:22.493184,13.16595520,.0001684,87.9085,224.9211,103.9073,256.2245,0,U,54680,999,17461,-.16464E-3,-.5E-6,0
ONEWEB-0714,2022-166AR,2026-07-07T03:46:16.387968,13.21822570,.0001999,87.9240,240.0036,105.0523,255.0832,0,U,54681,999,17417,.14916E-2,.629E-5,0
ONEWEB-0532,2023-004A,2026-07-06T22:16:00.077088,13.17648139,.0002089,87.9133,1.9362,83.6443,276.4927,0,U,55140,999,17018,.49526E-4,.32E-6,0
ONEWEB-0533,2023-004B,2026-07-07T10:21:25.660800,13.12441829,.0001687,87.8955,346.6444,91.5710,268.5612,0,U,55141,999,17071,.12347E-2,.457E-5,0
ONEWEB-0541,2023-004C,2026-07-07T11:27:13.167936,13.11416203,.000202,87.8890,17.0189,89.2085,270.9274,0,U,55142,999,16860,-.14982E-2,-.518E-5,0
ONEWEB-0543,2023-004D,2026-07-07T08:19:42.586752,13.18686309,.0001743,87.9181,331.4587,103.2530,256.8797,0,U,55143,999,17235,.20169E-3,.92E-6,0
ONEWEB-0544,2023-004E,2026-07-06T21:14:25.514592,13.18686943,.0001975,87.9180,331.5501,101.8900,258.2453,0,U,55144,999,17229,.68981E-4,.4E-6,0
ONEWEB-0560,2023-004F,2026-07-07T09:49:31.854144,13.18684798,.0001971,87.9178,331.4348,105.0017,255.1333,0,U,55145,999,17237,.23718E-3,.106E-5,0
ONEWEB-0565,2023-004G,2026-07-07T09:39:50.714784,13.18687182,.0002309,87.9171,331.4627,97.7966,262.3428,0,U,55146,999,17236,.12604E-3,.63E-6,0
ONEWEB-0567,2023-004H,2026-07-06T22:34:33.343680,13.18687115,.0002216,87.9179,331.5400,101.1912,258.9469,0,U,55147,999,17230,.1665E-4,.19E-6,0
ONEWEB-0569,2023-004J,2026-07-07T08:20:27.556224,13.13470728,.0002526,87.8984,316.2081,118.2767,241.8618,0,U,55148,999,17282,.95191E-3,.36E-5,0
ONEWEB-0570,2023-004K,2026-07-06T22:22:24.627936,13.18686804,.000214,87.9179,331.5395,88.4072,271.7305,0,U,55149,999,17229,.10469E-3,.54E-6,0
ONEWEB-0571,2023-004L,2026-07-07T09:08:16.950336,13.18685437,.0003028,87.9180,331.4500,108.3259,251.8202,0,U,55150,999,17236,.12084E-4,.18E-6,0
ONEWEB-0572,2023-004M,2026-07-06T21:11:37.292928,13.17651069,.0002012,87.9139,1.9466,91.6652,268.4710,0,U,55151,999,17007,.60255E-4,.36E-6,0
ONEWEB-0573,2023-004N,2026-07-07T08:58:32.774880,13.18687236,.0002733,87.9179,331.4529,102.1865,257.9573,0,U,55152,999,17235,.33018E-4,.26E-6,0
ONEWEB-0588,2023-004P,2026-07-07T08:48:51.302016,13.18685990,.0002267,87.9180,331.4540,87.3965,272.7426,0,U,55153,999,17235,-.73047E-6,.13E-6,0
ONEWEB-0598,2023-004Q,2026-07-07T10:55:29.623008,13.11414255,.0002363,87.8879,17.0324,103.8441,256.2950,0,U,55154,999,16855,.18307E-3,.78E-6,0
ONEWEB-0599,2023-004R,2026-07-07T10:50:29.920416,13.17649601,.0001785,87.9137,1.8318,97.8734,262.2601,0,U,55155,999,17015,-.11904E-4,.8E-7,0
ONEWEB-0614,2023-004S,2026-07-07T10:48:10.151136,13.11414581,.000187,87.8875,17.0417,82.9867,277.1474,0,U,55156,999,16849,.73571E-3,.273E-5,0
ONEWEB-0616,2023-004T,2026-07-07T10:01:54.012000,13.17650356,.0001396,87.9139,1.8424,121.0198,239.1071,0,U,55157,999,17036,.10251E-3,.53E-6,0
ONEWEB-0617,2023-004U,2026-07-06T21:42:00.860832,13.11416547,.0002092,87.8883,17.1426,79.9884,280.1480,0,U,55158,999,16844,.15136E-2,.549E-5,0
ONEWEB-0618,2023-004V,2026-07-07T05:28:30.501120,15.13327062,.0011003,86.9099,169.4967,205.6608,154.4088,0,U,55159,999,18529,.21796E-3,.3919E-4,0
ONEWEB-0619,2023-004W,2026-07-07T10:48:04.237056,13.17650128,.0001551,87.9149,1.8186,82.1315,277.9992,0,U,55160,999,17026,.19845E-4,.21E-6,0
ONEWEB-0620,2023-004X,2026-07-06T23:24:33.328800,13.11416838,.0002107,87.8876,17.1360,91.3252,268.8117,0,U,55161,999,16842,.15451E-2,.56E-5,0
