ONEWEB-0610             
1 54673U 22166AH  26188.09657656  .00000085  00000+0  17330-3 0  9990
2 54673  87.9236 240.0193 0001570  85.0013 275.1300 13.21825544174084
ONEWEB-0611             
1 54674U 22166AJ  26188.08982551  .00000098  00000+0  20574-3 0  9993
2 54674  87.9237 240.0165 0002202  99.3769 260.7614 13.21826056174070
ONEWEB-0612             
1 54675U 22166AK  26188.10330231  .00000087  00000+0  17942-3 0  9992
2 54675  87.9250 240.0116 0001961  93.2594 266.8764 13.21826157174066
ONEWEB-0615             
1 54676U 22166AL  26187.93170648  .00000025  00000+0  28909-4 0  9995
2 54676  87.9241 240.0586 0002187 103.7894 256.3484 13.21828144174059
ONEWEB-0655             
1 54677U 22166AM  26187.68106420 -.00000068  00000+0 -19544-3 0  9998
2 54677  87.9240 240.1092 0001832  99.5741 260.5600 13.21827753174019
ONEWEB-0659             
1 54678U 22166AN  26188.15206405 -.00000248  00000+0 -63305-3 0  9990
2 54678  87.9237 240.0152 0002169  96.4392 263.6989 13.21826398174168
ONEWEB-0685             
1 54679U 22166AP  26188.07614185  .00000018  00000+0  11849-4 0  9990
2 54679  87.9234 240.0218 0001806  88.2364 271.8976 13.21848461174043
ONEWEB-0712             
1 54680U 22166AQ  26187.59123256 -.00000050  00000+0 -16464-3 0  9997
2 54680  87.9085 224.9211 0001684 103.9073 256.2245 13.16595520174617
ONEWEB-0714             
1 54681U 22166AR  26188.15713412  .00000629  00000+0  14916-2 0  9999
2 54681  87.9240 240.0036 0001999 105.0523 255.0832 13.21822570174171
ONEWEB-0532             
1 55140U 23004A   26187.92777867  .00000032  00000+0  49526-4 0  9995
2 55140  87.9133   1.9362 0002089  83.6443 276.4927 13.17648139170183
ONEWEB-0533             
1 55141U 23004B   26188.43154700  .00000457  00000+0  12347-2 0  9998
2 55141  87.8955 346.6444 0001687  91.5710 268.5612 13.12441829170717
ONEWEB-0541             
1 55142U 23004C   26188.47723574 -.00000518  00000+0 -14982-2 0  9991
2 55142  87.8890  17.0189 0002020  89.2085 270.9274 13.11416203168605
ONEWEB-0543             
1 55143U 23004D   26188.34702068  .00000092  00000+0  20169-3 0  9993
2 55143  87.9181 331.4587 0001743 103.2530 256.8797 13.18686309172351
ONEWEB-0544             
1 55144U 23004E   26187.88501753  .00000040  00000+0  68981-4 0  9998
2 55144  87.9180 331.5501 0001975 101.8900 258.2453 13.18686943172292
ONEWEB-0560             
1 55145U 23004F   26188.40939646  .00000106  00000+0  23718-3 0  9995
2 55145  87.9178 331.4348 0001971 105.0017 255.1333 13.18684798172377
ONEWEB-0565             
1 55146U 23004G   26188.40267031  .00000063  00000+0  12604-3 0  9992
2 55146  87.9171 331.4627 0002309  97.7966 262.3428 13.18687182172361
ONEWEB-0567             
1 55147U 23004H   26187.94066370  .00000019  00000+0  16650-4 0  9991
2 55147  87.9179 331.5400 0002216 101.1912 258.9469 13.18687115172304
ONEWEB-0569             
1 55148U 23004J   26188.34754116  .00000360  00000+0  95191-3 0  9994
2 55148  87.8984 316.2081 0002526 118.2767 241.8618 13.13470728172823
ONEWEB-0570             
1 55149U 23004K   26187.93222949  .00000054  00000+0  10469-3 0  9998
2 55149  87.9179 331.5395 0002140  88.4072 271.7305 13.18686804172293
ONEWEB-0571             
1 55150U 23004L   26188.38075174  .00000018  00000+0  12084-4 0  9992
2 55150  87.9180 331.4500 0003028 108.3259 251.8202 13.18685437172363
ONEWEB-0572             
1 55151U 23004M   26187.88307052  .00000036  00000+0  60255-4 0  9993
2 55151  87.9139   1.9466 0002012  91.6652 268.4710 13.17651069170078
ONEWEB-0573             
1 55152U 23004N   26188.37399045  .00000026  00000+0  33018-4 0  9998
2 55152  87.9179 331.4529 0002733 102.1865 257.9573 13.18687236172357
ONEWEB-0588             
1 55153U 23004P   26188.36726044  .00000013  00000+0 -73047-6 0  9996
2 55153  87.9180 331.4540 0002267  87.3965 272.7426 13.18685990172357
ONEWEB-0598             
1 55154U 23004Q   26188.45520397  .00000078  00000+0  18307-3 0  9995
2 55154  87.8879  17.0324 0002363 103.8441 256.2950 13.11414255168552
ONEWEB-0599             
1 55155U 23004R   26188.45173519  .00000008  00000+0 -11904-4 0  9997
2 55155  87.9137   1.8318 0001785  97.8734 262.2601 13.17649601170159
ONEWEB-0614             
1 55156U 23004S   26188.45011749  .00000273  00000+0  73571-3 0  9994
2 55156  87.8875  17.0417 0001870  82.9867 277.1474 13.11414581168492
ONEWEB-0616             
1 55157U 23004T   26188.41798625  .00000053  00000+0  10251-3 0  9998
2 55157  87.9139   1.8424 0001396 121.0198 239.1071 13.17650356170369
ONEWEB-0617             
1 55158U 23004U   26187.90417663  .00000549  00000+0  15136-2 0  9998
2 55158  87.8883  17.1426 0002092  79.9884 280.1480 13.11416547168446
ONEWEB-0618             
1 55159U 23004V   26188.22813080  .00003919  00000+0  21796-3 0  9992
2 55159  86.9099 169.4967 0011003 205.6608 154.4088 15.13327062185297
ONEWEB-0619             
1 55160U 23004W   26188.45004904  .00000021  00000+0  19845-4 0  9990
2 55160  87.9149   1.8186 0001551  82.1315 277.9992 13.17650128170268
ONEWEB-0620             
1 55161U 23004X   26187.97538575  .00000560  00000+0  15451-2 0  9998
2 55161  87.8876  17.1360 0002107  91.3252 268.8117 13.11416838168424
